IRIDIUM 138             
1 43071U 17083B   26178.08406448  .00000054  00000+0  12265-4 0  9990
2 43071  86.3986 317.5740 0002222  87.3095 272.8355 14.34217921445553
IRIDIUM 116             
1 43072U 17083C   26177.91281410  .00000131  00000+0  39582-4 0  9999
2 43072  86.3972 317.9346 0002166 101.8018 258.3421 14.34218164445563
IRIDIUM 130             
1 43073U 17083D   26178.09040539  .00000086  00000+0  23646-4 0  9998
2 43073  86.3979 318.1365 0002013  96.7778 263.3647 14.34217238445535
IRIDIUM 151             
1 43074U 17083E   26178.13480529  .00000006  00000+0 -50162-5 0  9998
2 43074  86.3971 317.8999 0002091  94.3871 265.7564 14.34217522445564
IRIDIUM 134             
1 43075U 17083F   26178.10309090  .00000163  00000+0  50973-4 0  9991
2 43075  86.3975 317.9211 0002133  93.9984 266.1455 14.34218770445520
IRIDIUM 137             
1 43076U 17083G   26178.11577823 -.00000015  00000+0 -12389-4 0  9991
2 43076  86.3975 318.0091 0002396 102.0285 258.1179 14.34217337445595
IRIDIUM 141             
1 43077U 17083H   26178.10943480  .00000028  00000+0  28257-5 0  9991
2 43077  86.3972 317.8415 0002206  91.5644 268.5804 14.34217742445591
IRIDIUM 153             
1 43078U 17083J   26177.85230803  .00000008  00000+0 -40871-5 0  9996
2 43078  86.3963 286.4299 0002076  91.0575 269.0859 14.34217501446664
IRIDIUM 131             
1 43079U 17083K   26178.09674984  .00000037  00000+0  62785-5 0  9995
2 43079  86.3977 318.0335 0002246  92.2619 267.8834 14.34217605445522
IRIDIUM 144             
1 43249U 18030A   26177.99818446  .00000175  00000+0  55495-4 0  9990
2 43249  86.3964 286.2976 0002182  97.9357 262.2086 14.34216907431543
IRIDIUM 149             
1 43250U 18030B   26178.00453044  .00000026  00000+0  21043-5 0  9992
2 43250  86.3963 286.2619 0002301  93.8687 266.2772 14.34217759431566
IRIDIUM 157             
1 43251U 18030C   26178.23286253  .00000106  00000+0  30654-4 0  9990
2 43251  86.3965 286.2198 0002217  94.7591 265.3858 14.34218480431579
IRIDIUM 140             
1 43252U 18030D   26178.04258463  .00000194  00000+0  62342-4 0  9998
2 43252  86.3965 286.3121 0002156  95.3631 264.7811 14.34217832431607
IRIDIUM 145             
1 43253U 18030E   26177.82059391  .00000119  00000+0  35518-4 0  9995
2 43253  86.3962 286.3770 0002206 102.8351 257.3091 14.34218509431503
IRIDIUM 146             
1 43254U 18030F   26178.22017841  .00000079  00000+0  21322-4 0  9998
2 43254  86.3963 286.2221 0002265  97.7512 262.3941 14.34217896431576
IRIDIUM 148             
1 43255U 18030G   26178.04892845  .00000026  00000+0  21391-5 0  9993
2 43255  86.3963 286.3372 0002229  96.0604 264.0846 14.34217770431584
IRIDIUM 142             
1 43256U 18030H   26178.22652104  .00000018  00000+0 -51079-6 0  9995
2 43256  86.3960 286.1516 0002171  99.9614 260.1826 14.34217659431579
IRIDIUM 150             
1 43257U 18030J   26178.05527036  .00000123  00000+0  36982-4 0  9992
2 43257  86.3965 286.3397 0002155  95.6789 264.4652 14.34218169431573
IRIDIUM 143             
1 43258U 18030K   26178.03624292  .00000192  00000+0  61574-4 0  9994
2 43258  86.3968 286.4405 0002218  98.4759 261.6688 14.34218266431505
IRIDIUM 161             
1 43478U 18047C   26178.22196316  .00000302  00000+0  83840-4 0  9991
2 43478  86.4479  84.2758 0002517  81.6979 278.4507 14.43277549426589
IRIDIUM 152             
1 43479U 18047D   26178.21826595  .00000198  00000+0  63707-4 0  9993
2 43479  86.3956  84.1385 0002281  82.2112 277.9342 14.34218270423920
IRIDIUM 147             
1 43480U 18047E   26178.15484088  .00000026  00000+0  20539-5 0  9992
2 43480  86.3957  84.1703 0002164  87.3473 272.7971 14.34217715423916
IRIDIUM 110             
1 43481U 18047F   26178.16118410  .00000000  00000+0 -70573-5 0  9993
2 43481  86.3956  84.2597 0002349  78.2051 281.9408 14.34217415423907
IRIDIUM 162             
1 43482U 18047G   26178.21566499  .00000315  00000+0  87736-4 0  9990
2 43482  86.4481  84.1693 0002283  83.2922 276.8539 14.43279355426573
IRIDIUM 160             
1 43569U 18061A   26178.17678794  .00000052  00000+0  11392-4 0  9992
2 43569  86.3955  52.6201 0002252  85.5215 274.6238 14.34217890414806
IRIDIUM 166             
1 43570U 18061B   26178.13238929  .00000019  00000+0 -24052-6 0  9995
2 43570  86.3947  52.5887 0002054  88.3142 271.8289 14.34217652414821
IRIDIUM 158             
1 43571U 18061C   26178.17044512  .00000069  00000+0  17512-4 0  9998
2 43571  86.3951  52.5830 0002151  83.9722 276.1719 14.34217550414797
IRIDIUM 165             
1 43572U 18061D   26178.19581529  .00000079  00000+0  21199-4 0  9992
2 43572  86.3954  52.6190 0002141  89.4433 270.7008 14.34217578414825
IRIDIUM 155             
1 43573U 18061E   26178.15775965  .00000078  00000+0  20782-4 0  9994
2 43573  86.3950  52.5034 0002056  84.8116 275.3315 14.34218056414789
IRIDIUM 154             
1 43574U 18061F   26178.20850059  .00000090  00000+0  25182-4 0  9992
2 43574  86.3954  52.6164 0002176  89.1391 271.0054 14.34217966414844
IRIDIUM 163             
1 43575U 18061G   26178.18947328  .00000108  00000+0  31458-4 0  9999
2 43575  86.3952  52.5393 0002203  83.5501 276.5945 14.34217909414811
