OBJECT_NAME,OBJECT_ID,EPOCH,MEAN_MOTION,ECCENTRICITY,INCLINATION,RA_OF_ASC_NODE,ARG_OF_PERICENTER,MEAN_ANOMALY,EPHEMERIS_TYPE,CLASSIFICATION_TYPE,NORAD_CAT_ID,ELEMENT_SET_NO,REV_AT_EPOCH,BSTAR,MEAN_MOTION_DOT,MEAN_MOTION_DDOT
IRIDIUM 138,2017-083B,2026-06-27T02:01:03.171072,14.34217921,.0002222,86.3986,317.5740,87.3095,272.8355,0,U,43071,999,44555,.12265E-4,.54E-6,0
IRIDIUM 116,2017-083C,2026-06-26T21:54:27.138240,14.34218164,.0002166,86.3972,317.9346,101.8018,258.3421,0,U,43072,999,44556,.39582E-4,.131E-5,0
IRIDIUM 130,2017-083D,2026-06-27T02:10:11.025696,14.34217238,.0002013,86.3979,318.1365,96.7778,263.3647,0,U,43073,999,44553,.23646E-4,.86E-6,0
IRIDIUM 151,2017-083E,2026-06-27T03:14:07.177056,14.34217522,.0002091,86.3971,317.8999,94.3871,265.7564,0,U,43074,999,44556,-.50162E-5,.6E-7,0
IRIDIUM 134,2017-083F,2026-06-27T02:28:27.053760,14.34218770,.0002133,86.3975,317.9211,93.9984,266.1455,0,U,43075,999,44552,.50973E-4,.163E-5,0
IRIDIUM 137,2017-083G,2026-06-27T02:46:43.239072,14.34217337,.0002396,86.3975,318.0091,102.0285,258.1179,0,U,43076,999,44559,-.12389E-4,-.15E-6,0
IRIDIUM 141,2017-083H,2026-06-27T02:37:35.166720,14.34217742,.0002206,86.3972,317.8415,91.5644,268.5804,0,U,43077,999,44559,.28257E-5,.28E-6,0
IRIDIUM 153,2017-083J,2026-06-26T20:27:19.413792,14.34217501,.00020765,86.3963,286.4299,91.0575,269.0859,0,U,43078,999,44666,-.4087071E-5,.8E-7,0
IRIDIUM 131,2017-083K,2026-06-27T02:19:19.186176,14.34217605,.0002246,86.3977,318.0335,92.2619,267.8834,0,U,43079,999,44552,.62785E-5,.37E-6,0
IRIDIUM 144,2018-030A,2026-06-26T23:57:23.137344,14.34216907,.0002182,86.3964,286.2976,97.9357,262.2086,0,U,43249,999,43154,.55495E-4,.175E-5,0
IRIDIUM 149,2018-030B,2026-06-27T00:06:31.430016,14.34217759,.0002301,86.3963,286.2619,93.8687,266.2772,0,U,43250,999,43156,.21043E-5,.26E-6,0
IRIDIUM 157,2018-030C,2026-06-27T05:35:19.322592,14.34218480,.0002217,86.3965,286.2198,94.7591,265.3858,0,U,43251,999,43157,.30654E-4,.106E-5,0
IRIDIUM 140,2018-030D,2026-06-27T01:01:19.312032,14.34217832,.0002156,86.3965,286.3121,95.3631,264.7811,0,U,43252,999,43160,.62342E-4,.194E-5,0
IRIDIUM 145,2018-030E,2026-06-26T19:41:39.313824,14.34218509,.00022069,86.3962,286.3770,102.8351,257.3091,0,U,43253,999,43150,.35517765E-4,.119E-5,0
IRIDIUM 146,2018-030F,2026-06-27T05:17:03.414624,14.34217896,.0002265,86.3963,286.2221,97.7512,262.3941,0,U,43254,999,43157,.21322E-4,.79E-6,0
IRIDIUM 148,2018-030G,2026-06-27T01:10:27.418080,14.34217770,.0002229,86.3963,286.3372,96.0604,264.0846,0,U,43255,999,43158,.21391E-5,.26E-6,0
IRIDIUM 142,2018-030H,2026-06-27T05:26:11.417856,14.34217659,.0002171,86.3960,286.1516,99.9614,260.1826,0,U,43256,999,43157,-.51079E-6,.18E-6,0
IRIDIUM 150,2018-030J,2026-06-27T01:19:35.359104,14.34218169,.0002155,86.3965,286.3397,95.6789,264.4652,0,U,43257,999,43157,.36982E-4,.123E-5,0
IRIDIUM 143,2018-030K,2026-06-27T00:52:11.388288,14.34218266,.0002218,86.3968,286.4405,98.4759,261.6688,0,U,43258,999,43150,.61574E-4,.192E-5,0
IRIDIUM 161,2018-047C,2026-06-27T05:19:37.617024,14.43277549,.0002517,86.4479,84.2758,81.6979,278.4507,0,U,43478,999,42658,.8384E-4,.302E-5,0
IRIDIUM 152,2018-047D,2026-06-27T05:14:18.178080,14.34218270,.0002281,86.3956,84.1385,82.2112,277.9342,0,U,43479,999,42392,.63707E-4,.198E-5,0
IRIDIUM 147,2018-047E,2026-06-27T03:42:58.252032,14.34217715,.0002164,86.3957,84.1703,87.3473,272.7971,0,U,43480,999,42391,.20539E-5,.26E-6,0
IRIDIUM 110,2018-047F,2026-06-27T03:52:06.306240,14.34217415,.0002349,86.3956,84.2597,78.2051,281.9408,0,U,43481,999,42390,-.70573E-5,0,0
IRIDIUM 162,2018-047G,2026-06-27T05:10:33.455136,14.43279355,.0002283,86.4481,84.1693,83.2922,276.8539,0,U,43482,999,42657,.87736E-4,.315E-5,0
IRIDIUM 160,2018-061A,2026-06-27T04:14:34.478016,14.34217890,.0002252,86.3955,52.6201,85.5215,274.6238,0,U,43569,999,41480,.11392E-4,.52E-6,0
IRIDIUM 166,2018-061B,2026-06-27T03:10:38.434656,14.34217652,.0002054,86.3947,52.5887,88.3142,271.8289,0,U,43570,999,41482,-.24052E-6,.19E-6,0
IRIDIUM 158,2018-061C,2026-06-27T04:05:26.458368,14.34217550,.0002151,86.3951,52.5830,83.9722,276.1719,0,U,43571,999,41479,.17512E-4,.69E-6,0
IRIDIUM 165,2018-061D,2026-06-27T04:41:58.441056,14.34217578,.0002141,86.3954,52.6190,89.4433,270.7008,0,U,43572,999,41482,.21199E-4,.79E-6,0
IRIDIUM 155,2018-061E,2026-06-27T03:47:10.433760,14.34218056,.0002056,86.3950,52.5034,84.8116,275.3315,0,U,43573,999,41478,.20782E-4,.78E-6,0
IRIDIUM 154,2018-061F,2026-06-27T05:00:14.450976,14.34217966,.0002176,86.3954,52.6164,89.1391,271.0054,0,U,43574,999,41484,.25182E-4,.9E-6,0
IRIDIUM 163,2018-061G,2026-06-27T04:32:50.491392,14.34217909,.0002203,86.3952,52.5393,83.5501,276.5945,0,U,43575,999,41481,.31458E-4,.108E-5,0
